#dP2023  7 20  0  0  0.00000000      96 __u+U IGS14 FIT  IAC
## 2271 345600.00000000   900.00000000 60145 0.0000000000000
+  118   C06C07C08C09C10C11C12C13C14C16C19C20C21C22C23C24C25
+        C26C27C28C29C30C32C33C34C35C36C37C38C39C40C41C42C43
+        C44C45C46E02E03E04E05E07E08E09E10E11E12E13E14E15E18
+        E19E21E24E25E26E27E30E31E34E36G01G02G03G04G05G06G07
+        G08G09G10G11G12G13G14G15G16G17G18G19G20G21G22G23G24
+        G25G26G27G28G29G30G31G32J02J03J04R01R02R03R04R05R07
+        R08R09R11R12R13R14R15R16R17R18R19R20R21R22R24R25  0
++        13  7  7  7  7  7  6  7  7  7  6  6  6  6  6  6  6
++         6  6  6  6  6  6  6  6  6  6  6  6  6  7  6  6  7
++         6  6  6  4  5  4  5  4  5  4  4  4  4  4  4  5  4
++         4  4  4  4  4  4  4  5  5  4  4  3  3  3  4  4  4
++         4  3  3  4  3  4  3  4  4  3  4  4  4  3  4  3  3
++         3  4  4  3  4  4  3  3  9  9 10  7  6  7  7  7  6
++         6  7  7  7  8  7  7  7  6  7  8  8  7  7  7  8  0
%c M  cc GPS ccc cccc cccc cccc cccc ccccc ccccc ccccc ccccc
%c cc cc ccc ccc cccc cccc cccc cccc ccccc ccccc ccccc ccccc
%f  1.2500000  1.025000000  0.00000000000  0.000000000000000
%f  0.0000000  0.000000000  0.00000000000  0.000000000000000
%i    0    0    0    0      0      0      0      0         0
%i    0    0    0    0      0      0      0      0         0
/* INFORMATION & ANALYSIS CENTER (IAC)            FINAL DATA
/* S/V CLOCKS ARE ALIGNED TO GNSS TIME                      
/* G:C1WC2W R:C1PC2P E:C1XC5X C:C2IC6I J:C1CC2S             
/* PCV:IGS20_2247 OL/AL:FES2004  NONE     YN ORB:CoN CLK:CoN
*  2023 07 20  2 30  0.00000000
PC06  -9055.841711  22965.098322 -34163.524396    521.069395
PC07 -15574.594722  36674.418091  13518.165966   -349.402817
PC08   -903.857057  37841.573104  18756.764352    421.962978
PC09   1883.343314  25663.834659 -32871.809402    395.441061
PC10  -9784.853800  36498.283298  18441.355878   -119.697710
PC11  14343.753432  14186.957591  19354.881998    735.254322
PC12  -6958.553842  14589.018533  22778.465745    802.013497
PC13   3547.374941  40170.102749  12905.891029    318.752694
PC14   5005.566845  18056.636053 -20648.153516     86.539393
PC16  -9801.852075  22038.541756 -34333.809299     -0.946790
PC19 -12269.539153  -9842.771703  23071.348550   -942.862057
PC20   1797.569264 -22688.832248  16178.937521    423.359371
PC21 -15991.555110  22823.361794   1122.508547   -937.098660
PC22 -20030.635563   9346.372247  17009.215893   -388.588240
PC23  18251.186167   2656.522583  20954.938700   -936.800934
PC24   5937.305602  25869.689875  -8657.351762    191.912613
PC25  17914.782318  19187.947102   9490.675958    171.600054
PC26  -7507.608996  17390.700263 -20513.544448   -151.217476
PC27  15889.124069 -12382.558534 -19332.308560    172.129602
PC28  27092.651209  -2464.987126  -6235.907625    128.376684
PC29 -23050.466117  -9480.525887 -12557.192593    149.589084
PC30  -4311.940091 -15895.973304 -22539.460204     -2.422988
PC32  15857.509346 -22943.619574  -1190.417474   -537.767437
PC33  12305.912549   9834.140218 -23034.212422   -917.259613
PC34   5858.127656  15797.997504  22227.765414    218.607447
PC35 -27118.322301   3204.295386   5822.191609    585.058843
PC36 -17178.640166 -20145.442688  -8781.796260   -320.212678
PC37   8659.912607 -16335.141715  20915.433885   -795.279063
PC38  -6599.529248  33789.891090  24465.346356     92.701611
PC39 -16424.630917  19981.304503 -33292.434748     -3.900622
PC40 -23649.690869  32618.481967  11946.357659    -30.008807
PC41  19930.794850  -8787.796292 -17402.676029   -900.114220
PC42  -2919.374548  23253.771567 -15087.162000   -606.236168
PC43  22444.059118  10027.720058  13180.837983     31.489559
PC44 -15647.849299  12986.213435  19106.197447    174.025701
PC45 -17991.604436  -2151.302806 -21210.287551     -3.919588
PC46  -6966.891926 -25961.751885   7431.708381    -70.184713
PE02  12377.011819  17366.273342  20534.576992     50.764752
PE03  19365.784974   7444.212575 -21119.466477    -37.711742
PE04 -27832.340444   7477.137957   6751.849559   -170.557406
PE05   -562.023237  18216.944325 -23318.621261      1.201216
PE07  20294.465757 -18176.497993  11596.832017    -61.210747
PE08  27797.946620  -7288.542796  -7126.835699   -117.122332
PE09 -20404.245772  18083.313561 -11500.643361    -90.710659
PE10 -18557.156163   4650.470843  22570.194188   -549.802518
PE11  -9544.548628  12939.073417  24834.978050   2528.113275
PE12 -23977.401463  -3598.746397  16977.453383   -625.007218
PE13  10181.091717 -12391.087981 -24883.159056    -19.332562
PE14   2348.787334 -21385.593399 -23089.431699    287.184668
PE15  24091.205786   3899.527992 -16751.758851    -38.458487
PE18  11650.193866  12693.103874  18769.075401    316.025666
PE19 -17110.608793  -9242.085121  22323.284223  -2037.852320
PE21  -1308.391479 -28934.205698  -6109.184686   -541.729140
PE24 -11593.959103  23883.479475 -13114.526170   -219.100657
PE25   1085.400605  29008.525931   5797.169307   -608.563343
PE26 -10095.824113 -21419.809826 -17760.536409    168.087346
PE27  11153.517087 -24355.326561  12596.403893   -103.514930
PE30  16989.278171  -4867.782860  23740.176790   -349.645368
PE31 -16898.902798   5497.016976 -23659.792325     -0.769354
PE34  23761.157509  17631.991245   1038.426743    -57.008653
PE36   9495.549022  21203.667963  18334.525549    -88.508821
PG01 -22050.391863 -14731.750726   3137.567240    172.184098
PG02 -21258.712530 -15736.676764  -2696.398948   -574.387548
PG03 -12875.555059  -9900.104928  20898.345757   -225.205945
PG04 -21827.901452  -2811.740631  14962.669385    100.758462
PG05   6048.619150  23241.438182 -11404.709652   -135.558942
PG06  -5998.060889  13666.924882  22020.702643    576.228669
PG07 -21193.880685  -2014.390857 -15707.995001    120.117052
PG08 -12854.879501 -10339.778420 -20965.868043   -133.071301
PG09 -24978.140138   5904.614635   6839.518197   -107.937078
PG10  10974.120950 -20439.413153 -12459.510190    -45.844453
PG11   8209.833934  20396.500775  14939.085073   -283.482891
PG12  10882.582465  14198.986128  19380.526603   -402.789893
PG13   3798.781853  14606.468086 -22038.685909    549.369127
PG14 -13368.048227  17596.085608 -14597.287749    127.756819
PG15  14671.014862   9088.691334 -20715.594633     59.650043
PG16   -511.905441 -25056.994391  -8371.811442   -478.733665
PG17 -20524.709049  14175.524565   9702.458286    721.299512
PG18  19364.944277   -538.422692 -18246.177619   -351.962038
PG19 -14892.088993  15366.680238  15302.891693    346.231040
PG20   1638.837362  26603.905624   -645.864853    421.746196
PG21 -20169.379358 -17029.466423  -5265.716830    151.942273
PG22  11116.045813 -16660.347654  17819.234238    515.243548
PG23  14667.151498  -8802.161411 -20269.180396     45.188092
PG24  21820.043714  15451.118378  -2063.201169   -263.379249
PG25  15318.740543   -183.287124  21371.220879    457.169285
PG26   4424.543673 -25666.422504   4041.491434    235.921421
PG27   -247.627144 -15950.156598 -21421.829109     -6.537168
PG28   7734.121045 -13123.636659  21737.818727     81.832534
PG29  25245.433453  -2819.881171   7882.609863   -605.927471
PG30 -15195.320562   7340.375965 -20442.331778   -502.997274
PG31  -2820.130203 -18752.219070  18242.100823   -220.374035
PG32  17595.350720 -16283.764798  11397.629553   -524.559085
PJ02 -23252.352675  30018.838787 -13593.166514     -1.558113
PJ03 -27446.423205  23094.036766  27198.271575     -0.203553
PJ04 -30939.316088  28544.081460   8557.074380     97.179021
PR01  -6262.885412  -9341.020921  22895.915326     61.743207
PR02 -17523.570958   6170.208236  17554.324050    -22.597247
PR03 -18328.298004  17670.850691   2053.146785     81.821887
PR04  -9256.977590  18981.942933 -14287.277605    195.553795
PR05   4883.958429  10175.541028 -22866.612393    116.038561
PR07  18027.066989 -17976.552065  -1077.495497     60.563619
PR08   8848.967403 -19033.604307  14530.201111    -71.737776
PR09  12857.924638   5403.123300  21361.344910    132.123222
PR11  -2204.659440 -23401.992029   9946.068444   -108.971878
PR12 -10847.739375 -21190.899556  -9116.396872     29.280700
PR13 -12801.608119  -7800.961204 -20645.598223    -37.273106
PR14  -6877.830292  12599.808073 -21061.410732     24.981916
PR15   2688.421695  23830.528011  -8653.984828     87.709239
PR16  10877.398247  21260.249431   8927.776093     16.850171
PR17 -16488.302741   4698.695957  18869.936435      1.341269
PR18     55.704077  10774.105041  23127.029607     92.445178
PR19  15183.516656  12128.863684  16523.040971   -240.454804
PR20  24612.989544   5866.671154  -3086.313922    -96.889838
PR21  15541.070104  -5090.804070 -19593.363552    -24.002224
PR22   -699.955165 -11412.978869 -22780.218943     98.155556
PR24 -24805.470204  -4605.235851   3695.826274    -17.234400
PR25  16877.513828  -4127.222190 -18684.984553     46.547964
EOF
